[{"OBJECT_NAME":"GLOBAL-2","OBJECT_ID":"2018-099BG","EPOCH":"2026-03-09T16:47:21.463008","MEAN_MOTION":15.08046936,"ECCENTRICITY":0.00074537,"INCLINATION":97.3697,"RA_OF_ASC_NODE":109.328,"ARG_OF_PERICENTER":127.1924,"MEAN_ANOMALY":232.9986,"EPHEMERIS_TYPE":0,"CLASSIFICATION_TYPE":"U","NORAD_CAT_ID":43812,"ELEMENT_SET_NO":999,"REV_AT_EPOCH":39691,"BSTAR":0.0002614533,"MEAN_MOTION_DOT":3.97e-5,"MEAN_MOTION_DDOT":0},{"OBJECT_NAME":"STARLINK-4809","OBJECT_ID":"2022-114AR","EPOCH":"2026-03-09T22:17:05.851680","MEAN_MOTION":15.08836465,"ECCENTRICITY":0.00012479,"INCLINATION":53.2179,"RA_OF_ASC_NODE":292.6269,"ARG_OF_PERICENTER":90.4655,"MEAN_ANOMALY":269.648,"EPHEMERIS_TYPE":0,"CLASSIFICATION_TYPE":"U","NORAD_CAT_ID":53857,"ELEMENT_SET_NO":999,"REV_AT_EPOCH":19301,"BSTAR":1.2950775e-5,"MEAN_MOTION_DOT":-8.2e-7,"MEAN_MOTION_DDOT":0}]
